[
    {
        "Altitude(m)": 604234.6074042715,
        "Argument of Periapsis(deg)": 0.0,
        "Eccentricity": 0.0,
        "Inclination(deg)": 60.0,
        "Latitude(deg)": 14.11722535411449,
        "Longitude(deg)": 6.727303087068075,
        "Mean Anomaly(deg)": -196.36360000000005,
        "RAAN(deg)": 295.00000000000006,
        "Satellite Name": "Test1 1308",
        "Satellite Number": 1308,
        "Semi-Major Axis(m)": 6980739.136638005,
        "Time(s)": 0
    },
    {
        "Altitude(m)": 604223.4361196746,
        "Argument of Periapsis(deg)": 0.00010418945913296404,
        "Eccentricity": 0.0,
        "Inclination(deg)": 60.0,
        "Latitude(deg)": 13.582362210722275,
        "Longitude(deg)": 7.014213205660427,
        "Mean Anomaly(deg)": -195.7434938545382,
        "RAAN(deg)": 294.99957995086027,
        "Satellite Name": "Test1 1308",
        "Satellite Number": 1308,
        "Semi-Major Axis(m)": 6980739.136638005,
        "Time(s)": 10
    }
]